FLOCK 4BE-34            
1 60495U 24149AD  26062.21004015  .00019835  00000+0  53716-3 0  9993
2 60495  97.3837 145.7707 0002287 296.1486  63.9523 15.37705579 86022
FLOCK 4BE-32            
1 60497U 24149AF  26062.16503376  .00023823  00000+0  63536-3 0  9996
2 60497  97.3778 145.2321 0002626 294.4980  65.5991 15.38140529 86017
FLOCK 4BE-30            
1 60499U 24149AH  26062.17544042  .00021275  00000+0  57099-3 0  9990
2 60499  97.3859 145.7996 0001976 293.5337  66.5700 15.37970357 85393
FLOCK 4BE-11            
1 60501U 24149AK  26062.15193090  .00024242  00000+0  62970-3 0  9996
2 60501  97.3762 145.3435 0003010 293.3365  66.7564 15.38949996 86021
FLOCK 4BE-24            
1 60505U 24149AP  26062.19799071  .00023595  00000+0  61553-3 0  9991
2 60505  97.3777 145.6357 0002912 304.5980  55.4991 15.38823416 86044
TANAGER-1               
1 60507U 24149AR  26062.21044526  .00005039  00000+0  11423-3 0  9998
2 60507  97.3799 155.4968 0007213 219.2528 140.8197 15.43535761 86682
FLOCK 4BE-29            
1 60509U 24149AT  26062.16504548  .00025726  00000+0  64385-3 0  9999
2 60509  97.3860 146.7298 0002059 325.6049  34.5063 15.40079781 86071
FLOCK 4BE-2             
1 60511U 24149AV  26062.20864259  .00050462  00000+0  11601-2 0  9992
2 60511  97.3864 147.3271 0002639 301.8445  58.2545 15.42501428 86119
FLOCK 4BE-13            
1 60512U 24149AW  26062.20298252  .00021833  00000+0  57556-3 0  9997
2 60512  97.3776 145.7449 0003464 295.2729  64.8157 15.38514566 86056
FLOCK 4BE-27            
1 60513U 24149AX  26062.15860984  .00012699  00000+0  40799-3 0  9990
2 60513  97.3884 144.0955 0003054 338.2799  21.8313 15.32412167 85897
FLOCK 4BE-9             
1 60514U 24149AY  26062.18327344  .00019422  00000+0  53282-3 0  9994
2 60514  97.3848 145.6792 0001684 334.6546  25.4615 15.37308591 86011
FLOCK 4BE-6             
1 60516U 24149BA  26062.20288672  .00017594  00000+0  49791-3 0  9997
2 60516  97.3850 145.2335 0002369 323.5846  36.5236 15.36358812 85983
FLOCK 4BE-14            
1 60517U 24149BB  26062.20592588  .00020070  00000+0  54889-3 0  9999
2 60517  97.3760 145.3063 0003236 319.5079  40.5924 15.37395784 86025
FLOCK 4BE-1             
1 60518U 24149BC  26062.19286660  .00023333  00000+0  61219-3 0  9999
2 60518  97.3835 146.2185 0003156 315.7347  44.3646 15.38648311 86055
FLOCK 4BE-28            
1 60519U 24149BD  26062.16270374  .00025333  00000+0  62250-3 0  9990
2 60519  97.3801 146.6057 0003556 314.6766  45.4190 15.40637007 86091
FLOCK 4BE-35            
1 60558U 24149CU  26062.15834994  .00095157  00000+0  21929-2 0  9994
2 60558  97.3807 145.3186 0004388 278.5011  81.5739 15.42227503 85990
FLOCK 4BE-5             
1 60559U 24149CV  26062.15092747  .00023347  00000+0  65266-3 0  9992
2 60559  97.3897 145.3826 0002482 324.3222  35.7856 15.36684300 85972
